{"type": "FeatureCollection", "features": [ {"type": "Feature", "properties": {"norad_id": 66913, "name": "2025-284A", "group": "last-30-days", "lat": 69.38762504994571, "lon": -76.64194856596934, "alt_km": 503.2241235907795, "timestamp": "2025-12-12T11:38:30.171915+00:00", "meta": {"OBJECT_NAME": "2025-284A", "OBJECT_ID": "2025-284A", "EPOCH": "2025-12-12T03:15:39.225888", "MEAN_MOTION": 15.1894927, "ECCENTRICITY": 0.0012044, "INCLINATION": 80.4046, "RA_OF_ASC_NODE": 130.5303, "ARG_OF_PERICENTER": 206.5686, "MEAN_ANOMALY": 153.4925, "EPHEMERIS_TYPE": 0, "CLASSIFICATION_TYPE": "U", "NORAD_CAT_ID": 66913, "ELEMENT_SET_NO": 999, "REV_AT_EPOCH": 103, "BSTAR": 0.00069826, "MEAN_MOTION_DOT": 0.00014649, "MEAN_MOTION_DDOT": 0}, "tle": {"line1": "1 66913U 25284A   25346.13587067  .00014649  00000+0  69826-3 0  9990", "line2": "2 66913  80.4046 130.5303 0012044 206.5686 153.4925 15.18949270  1037"}}, "geometry": {"type": "Point", "coordinates": [-76.64194856596934, 69.38762504994571]}}, {"type": "Feature", "properties": {"norad_id": 66914, "name": "2025-284B", "group": "last-30-days", "lat": 67.37665767441938, "lon": -73.85927559267064, "alt_km": 506.73799270566906, "timestamp": "2025-12-12T11:38:30.171927+00:00", "meta": {"OBJECT_NAME": "2025-284B", "OBJECT_ID": "2025-284B", "EPOCH": "2025-12-12T04:49:55.092576", "MEAN_MOTION": 15.18902776, "ECCENTRICITY": 0.0008336, "INCLINATION": 80.4055, "RA_OF_ASC_NODE": 130.4482, "ARG_OF_PERICENTER": 248.716, "MEAN_ANOMALY": 111.3178, "EPHEMERIS_TYPE": 0, "CLASSIFICATION_TYPE": "U", "NORAD_CAT_ID": 66914, "ELEMENT_SET_NO": 999, "REV_AT_EPOCH": 104, "BSTAR": 0.00068027, "MEAN_MOTION_DOT": 0.00014238, "MEAN_MOTION_DDOT": 0}, "tle": {"line1": "1 66914U 25284B   25346.20133209  .00014238  00000+0  68027-3 0  9990", "line2": "2 66914  80.4055 130.4482 0008336 248.7160 111.3178 15.18902776  1043"}}, "geometry": {"type": "Point", "coordinates": [-73.85927559267064, 67.37665767441938]}}, {"type": "Feature", "properties": {"norad_id": 66915, "name": "HULIANWANG DIGUI-105", "group": "last-30-days", "lat": -15.236861413775513, "lon": 105.08935045251073, "alt_km": 877.2906851431353, "timestamp": "2025-12-12T11:38:30.171937+00:00", "meta": {"OBJECT_NAME": "HULIANWANG DIGUI-105", "OBJECT_ID": "2025-285A", "EPOCH": "2025-12-12T04:54:23.874336", "MEAN_MOTION": 14.04578447, "ECCENTRICITY": 0.0008078, "INCLINATION": 50.0047, "RA_OF_ASC_NODE": 119.4525, "ARG_OF_PERICENTER": 279.5241, "MEAN_ANOMALY": 80.475, "EPHEMERIS_TYPE": 0, "CLASSIFICATION_TYPE": "U", "NORAD_CAT_ID": 66915, "ELEMENT_SET_NO": 999, "REV_AT_EPOCH": 83, "BSTAR": 0.00019831, "MEAN_MOTION_DOT": 1.67e-06, "MEAN_MOTION_DDOT": 0}, "tle": {"line1": "1 66915U 25285A   25346.20444299  .00000167  00000+0  19831-3 0  9991", "line2": "2 66915  50.0047 119.4525 0008078 279.5241  80.4750 14.04578447   834"}}, "geometry": {"type": "Point", "coordinates": [105.08935045251073, -15.236861413775513]}}, {"type": "Feature", "properties": {"norad_id": 66916, "name": "HULIANWANG DIGUI-106", "group": "last-30-days", "lat": -12.443965912643742, "lon": 107.6270404217948, "alt_km": 874.7983513197796, "timestamp": "2025-12-12T11:38:30.171947+00:00", "meta": {"OBJECT_NAME": "HULIANWANG DIGUI-106", "OBJECT_ID": "2025-285B", "EPOCH": "2025-12-12T04:53:36.501216", "MEAN_MOTION": 14.05514475, "ECCENTRICITY": 0.0006964, "INCLINATION": 50.0048, "RA_OF_ASC_NODE": 119.4514, "ARG_OF_PERICENTER": 275.5862, "MEAN_ANOMALY": 84.4249, "EPHEMERIS_TYPE": 0, "CLASSIFICATION_TYPE": "U", "NORAD_CAT_ID": 66916, "ELEMENT_SET_NO": 999, "REV_AT_EPOCH": 83, "BSTAR": 0.00019699, "MEAN_MOTION_DOT": 1.7e-06, "MEAN_MOTION_DDOT": 0}, "tle": {"line1": "1 66916U 25285B   25346.20389469  .00000170  00000+0  19699-3 0  9995", "line2": "2 66916  50.0048 119.4514 0006964 275.5862  84.4249 14.05514475   830"}}, "geometry": {"type": "Point", "coordinates": [107.6270404217948, -12.443965912643742]}}, {"type": "Feature", "properties": {"norad_id": 66917, "name": "HULIANWANG DIGUI-107", "group": "last-30-days", "lat": -11.287551247217516, "lon": 108.64902485835015, "alt_km": 873.7425168152449, "timestamp": "2025-12-12T11:38:30.171957+00:00", "meta": {"OBJECT_NAME": "HULIANWANG DIGUI-107", "OBJECT_ID": "2025-285C", "EPOCH": "2025-12-12T04:53:11.426208", "MEAN_MOTION": 14.05580257, "ECCENTRICITY": 0.0007556, "INCLINATION": 50.0014, "RA_OF_ASC_NODE": 119.4461, "ARG_OF_PERICENTER": 283.4029, "MEAN_ANOMALY": 76.6034, "EPHEMERIS_TYPE": 0, "CLASSIFICATION_TYPE": "U", "NORAD_CAT_ID": 66917, "ELEMENT_SET_NO": 999, "REV_AT_EPOCH": 83, "BSTAR": 1.2542e-05, "MEAN_MOTION_DOT": -1.32e-06, "MEAN_MOTION_DDOT": 0}, "tle": {"line1": "1 66917U 25285C   25346.20360447 -.00000132  00000+0  12542-4 0  9991", "line2": "2 66917  50.0014 119.4461 0007556 283.4029  76.6034 14.05580257   832"}}, "geometry": {"type": "Point", "coordinates": [108.64902485835015, -11.287551247217516]}}, {"type": "Feature", "properties": {"norad_id": 66918, "name": "HULIANWANG DIGUI-108", "group": "last-30-days", "lat": -9.246461838874836, "lon": 110.43787642779512, "alt_km": 874.0375015985746, "timestamp": "2025-12-12T11:38:30.171969+00:00", "meta": {"OBJECT_NAME": "HULIANWANG DIGUI-108", "OBJECT_ID": "2025-285D", "EPOCH": "2025-12-12T04:52:27.632640", "MEAN_MOTION": 14.05705082, "ECCENTRICITY": 0.0006466, "INCLINATION": 50.0035, "RA_OF_ASC_NODE": 119.4456, "ARG_OF_PERICENTER": 278.4704, "MEAN_ANOMALY": 81.5469, "EPHEMERIS_TYPE": 0, "CLASSIFICATION_TYPE": "U", "NORAD_CAT_ID": 66918, "ELEMENT_SET_NO": 999, "REV_AT_EPOCH": 83, "BSTAR": 0.00020032, "MEAN_MOTION_DOT": 1.76e-06, "MEAN_MOTION_DDOT": 0}, "tle": {"line1": "1 66918U 25285D   25346.20309760  .00000176  00000+0  20032-3 0  9992", "line2": "2 66918  50.0035 119.4456 0006466 278.4704  81.5469 14.05705082   835"}}, "geometry": {"type": "Point", "coordinates": [110.43787642779512, -9.246461838874836]}}, {"type": "Feature", "properties": {"norad_id": 66919, "name": "HULIANWANG DIGUI-109", "group": "last-30-days", "lat": -8.986411128248688, "lon": 110.66732409711962, "alt_km": 872.6106281912853, "timestamp": "2025-12-12T11:38:30.171979+00:00", "meta": {"OBJECT_NAME": "HULIANWANG DIGUI-109", "OBJECT_ID": "2025-285E", "EPOCH": "2025-12-12T04:52:21.888768", "MEAN_MOTION": 14.05716305, "ECCENTRICITY": 0.000787, "INCLINATION": 50.006, "RA_OF_ASC_NODE": 119.4486, "ARG_OF_PERICENTER": 289.9553, "MEAN_ANOMALY": 70.0504, "EPHEMERIS_TYPE": 0, "CLASSIFICATION_TYPE": "U", "NORAD_CAT_ID": 66919, "ELEMENT_SET_NO": 999, "REV_AT_EPOCH": 83, "BSTAR": 6.3964e-07, "MEAN_MOTION_DOT": -1.51e-06, "MEAN_MOTION_DDOT": 0}, "tle": {"line1": "1 66919U 25285E   25346.20303112 -.00000151  00000+0  63964-6 0  9996", "line2": "2 66919  50.0060 119.4486 0007870 289.9553  70.0504 14.05716305   839"}}, "geometry": {"type": "Point", "coordinates": [110.66732409711962, -8.986411128248688]}}, {"type": "Feature", "properties": {"norad_id": 66920, "name": "HULIANWANG DIGUI-110", "group": "last-30-days", "lat": -6.78784020654981, "lon": 112.56057699090896, "alt_km": 873.0827575001495, "timestamp": "2025-12-12T11:38:30.171991+00:00", "meta": {"OBJECT_NAME": "HULIANWANG DIGUI-110", "OBJECT_ID": "2025-285F", "EPOCH": "2025-12-12T04:51:34.977888", "MEAN_MOTION": 14.05850975, "ECCENTRICITY": 0.0005825, "INCLINATION": 50.0092, "RA_OF_ASC_NODE": 119.4494, "ARG_OF_PERICENTER": 286.7895, "MEAN_ANOMALY": 73.2371, "EPHEMERIS_TYPE": 0, "CLASSIFICATION_TYPE": "U", "NORAD_CAT_ID": 66920, "ELEMENT_SET_NO": 999, "REV_AT_EPOCH": 83, "BSTAR": 0.00019622, "MEAN_MOTION_DOT": 1.7e-06, "MEAN_MOTION_DDOT": 0}, "tle": {"line1": "1 66920U 25285F   25346.20248817  .00000170  00000+0  19622-3 0  9997", "line2": "2 66920  50.0092 119.4494 0005825 286.7895  73.2371 14.05850975   836"}}, "geometry": {"type": "Point", "coordinates": [112.56057699090896, -6.78784020654981]}}, {"type": "Feature", "properties": {"norad_id": 66921, "name": "HULIANWANG DIGUI-111", "group": "last-30-days", "lat": -6.210777563324928, "lon": 113.05447401169016, "alt_km": 872.0844289077213, "timestamp": "2025-12-12T11:38:30.172001+00:00", "meta": {"OBJECT_NAME": "HULIANWANG DIGUI-111", "OBJECT_ID": "2025-285G", "EPOCH": "2025-12-12T04:51:22.616640", "MEAN_MOTION": 14.05884657, "ECCENTRICITY": 0.0006976, "INCLINATION": 50.0108, "RA_OF_ASC_NODE": 119.4507, "ARG_OF_PERICENTER": 293.2865, "MEAN_ANOMALY": 66.7306, "EPHEMERIS_TYPE": 0, "CLASSIFICATION_TYPE": "U", "NORAD_CAT_ID": 66921, "ELEMENT_SET_NO": 999, "REV_AT_EPOCH": 83, "BSTAR": 0.00020838, "MEAN_MOTION_DOT": 1.91e-06, "MEAN_MOTION_DDOT": 0}, "tle": {"line1": "1 66921U 25285G   25346.20234510  .00000191  00000+0  20838-3 0  9997", "line2": "2 66921  50.0108 119.4507 0006976 293.2865  66.7306 14.05884657   837"}}, "geometry": {"type": "Point", "coordinates": [113.05447401169016, -6.210777563324928]}}, {"type": "Feature", "properties": {"norad_id": 66922, "name": "HULIANWANG DIGUI-112", "group": "last-30-days", "lat": -4.288958183890085, "lon": 114.6770228141752, "alt_km": 871.1935632822051, "timestamp": "2025-12-12T11:38:30.172011+00:00", "meta": {"OBJECT_NAME": "HULIANWANG DIGUI-112", "OBJECT_ID": "2025-285H", "EPOCH": "2025-12-12T04:50:41.709696", "MEAN_MOTION": 14.05999845, "ECCENTRICITY": 0.0006948, "INCLINATION": 50.0083, "RA_OF_ASC_NODE": 119.4441, "ARG_OF_PERICENTER": 299.5839, "MEAN_ANOMALY": 60.4374, "EPHEMERIS_TYPE": 0, "CLASSIFICATION_TYPE": "U", "NORAD_CAT_ID": 66922, "ELEMENT_SET_NO": 999, "REV_AT_EPOCH": 83, "BSTAR": 2.9235e-06, "MEAN_MOTION_DOT": -1.47e-06, "MEAN_MOTION_DDOT": 0}, "tle": {"line1": "1 66922U 25285H   25346.20187164 -.00000147  00000+0  29235-5 0  9994", "line2": "2 66922  50.0083 119.4441 0006948 299.5839  60.4374 14.05999845   838"}}, "geometry": {"type": "Point", "coordinates": [114.6770228141752, -4.288958183890085]}}]}